STARLINK-37384          
1 69460U 26127T   26170.49747390  .00211267  00000+0  10413-2 0  9991
2 69460  53.1583 250.5870 0000925  63.0861 297.0256 15.81009978  1773
STARLINK-37707          
1 69461U 26127U   26170.49194041  .00169577  00000+0  84377-3 0  9998
2 69461  53.1592 250.5498 0000600  94.3008 265.8083 15.80928456  1771
STARLINK-37525          
1 69462U 26127V   26170.49179694  .00218161  00000+0  10765-2 0  9999
2 69462  53.1588 250.5476 0001214  66.2001 293.9149 15.80967070  1776
STARLINK-37526          
1 69463U 26127W   26170.49116783  .00109880  00000+0  55102-3 0  9992
2 69463  53.1592 250.5440 0001631  20.5930 339.5158 15.80957744  1774
STARLINK-37574          
1 69464U 26127X   26170.48430166  .00042232  00000+0  21549-3 0  9991
2 69464  53.1591 250.4968 0002709  11.4442 348.6642 15.80968306  1777
STARLINK-37535          
1 69465U 26127Y   26170.54940096  .00098067  00000+0  49413-3 0  9994
2 69465  53.1591 250.1928 0001016  49.8135 310.2977 15.80901021  1783
STARLINK-37583          
1 69466U 26127Z   26170.60191719 -.00596966  00000+0 -31904-2 0  9990
2 69466  53.1588 249.8041 0000913  39.4408 320.6681 15.81172625  1793
STARLINK-37546          
1 69467U 26127AA  26170.59968189 -.00879658  00000+0 -47796-2 0  9990
2 69467  53.1581 249.7880 0001684  14.6278 345.4794 15.81520421  1794
STARLINK-37532          
1 69468U 26127AB  26170.60077245 -.00225966  00000+0 -11661-2 0  9996
2 69468  53.1584 249.7943 0000331  84.6582 275.4479 15.80974727  1794
STARLINK-37708          
1 69469U 26127AC  26170.34660530 -.00763220  00000+0 -40309-2 0  9994
2 69469  53.1584 251.0527 0001807  17.5853 342.5232 15.81832705  1753
STARLINK-37686          
1 69470U 26127AD  26170.59737180 -.00786521  00000+0 -42796-2 0  9990
2 69470  53.1580 249.7716 0003280 175.4217 184.6837 15.81239032  1794
STARLINK-37451          
1 69471U 26127AE  26170.53219637 -.00906815  00000+0 -48096-2 0  9996
2 69471  53.1577 250.0774 0003132 348.8184  11.2769 15.82085986  1781
DTC TEST OBJECT A       
1 69472U 26128A   26170.60936314  .00022874  00000+0  32969-3 0  9999
2 69472  54.9940 293.8391 0008688 298.3485  61.6674 15.55938893  1608
DTC TEST OBJECT B       
1 69473U 26128B   26170.60698640  .00028198  00000+0  39749-3 0  9995
2 69473  55.0030 293.8332 0008720 299.2555  60.7609 15.56417593  1597
TJS-25                  
1 69474U 26129A   26162.48255804  .00007407  00000+0  19774-2 0  9990
2 69474  16.5302  30.5351 7751889 199.9639  91.9387  1.72502163    78
STARLINK-37816          
1 69478U 26131A   26168.75003472 -.01093379  37146-3 -26551-2 0  9997
2 69478  97.2824 188.9762 0001149  80.4448  35.9636 15.96316495  2106
STARLINK-37878          
1 69479U 26131B   26168.41668981 -.00976144  30334-3 -22776-2 0  9999
2 69479  97.2817 188.6149 0000872  97.2660 265.8231 15.97036350  1316
STARLINK-37817          
1 69480U 26131C   26168.75003472 -.01095329  37360-3 -26268-2 0  9990
2 69480  97.2822 188.9776 0001181  77.8521  42.4103 15.96547425  2101
STARLINK-37727          
1 69481U 26131D   26168.75003472 -.01098784  37629-3 -26175-2 0  9994
2 69481  97.2819 188.9784 0001174  76.6396  45.7078 15.96671350  2108
STARLINK-37814          
1 69482U 26131E   26168.75003472 -.01099082  37691-3 -26031-2 0  9997
2 69482  97.2821 188.9793 0001181  77.2384  46.9070 15.96778578  2109
STARLINK-37869          
1 69483U 26131F   26168.75003472 -.01107172  38261-3 -26036-2 0  9997
2 69483  97.2820 188.9802 0001149  76.2430  50.1342 15.96910777  2103
STARLINK-37873          
1 69484U 26131G   26168.75003472 -.01109103  38431-3 -25920-2 0  9994
2 69484  97.2820 188.9809 0001160  76.2701  51.9896 15.97024990  2102
STARLINK-37892          
1 69485U 26131H   26168.75003472 -.01099303  37839-3 -25573-2 0  9990
2 69485  97.2819 188.9816 0001149  78.7411  50.8476 15.97108252  2107
STARLINK-37893          
1 69486U 26131J   26168.75003472 -.01102657  38101-3 -25487-2 0  9995
2 69486  97.2818 188.9823 0001165  77.5835  53.9573 15.97225915  2186
STARLINK-37842          
1 69487U 26131K   26168.83335648 -.01052755  34935-3 -24442-2 0  9992
2 69487  97.2817 189.0737 0001069  79.0004 173.2061 15.97137733  2111
STARLINK-37449          
1 69488U 26131L   26168.83335648 -.01055018  35119-3 -24339-2 0  9998
2 69488  97.2818 189.0744 0001093  79.7938 174.4151 15.97254920  2202
STARLINK-37831          
1 69489U 26131M   26168.41668981 -.00995223  31852-3 -21761-2 0  9998
2 69489  97.2813 188.6216 0000933  90.8599 290.4087 15.98221671  1312
STARLINK-37879          
1 69490U 26131N   26168.83335648 -.01059963  35514-3 -24145-2 0  9998
2 69490  97.2816 189.0761 0001097  79.1630 178.9501 15.97486806  2117
STARLINK-37856          
1 69491U 26131P   26168.83335648 -.01063313  35768-3 -24065-2 0  9995
2 69491  97.2816 189.0765 0001113  78.4450 181.6887 15.97605672  2171
